[{"OBJECT_NAME":"SHIYAN-1 (SY-1)","OBJECT_ID":"2004-012A","EPOCH":"2026-03-09T17:40:34.066560","MEAN_MOTION":15.31043463,"ECCENTRICITY":0.00058726,"INCLINATION":97.8764,"RA_OF_ASC_NODE":140.5238,"ARG_OF_PERICENTER":23.6952,"MEAN_ANOMALY":336.4557,"EPHEMERIS_TYPE":0,"CLASSIFICATION_TYPE":"U","NORAD_CAT_ID":28220,"ELEMENT_SET_NO":999,"REV_AT_EPOCH":19586,"BSTAR":0.00054854449,"MEAN_MOTION_DOT":0.00016393,"MEAN_MOTION_DDOT":0},{"OBJECT_NAME":"STARLINK-31266","OBJECT_ID":"2024-041P","EPOCH":"2026-03-09T00:53:58.589088","MEAN_MOTION":15.27591409,"ECCENTRICITY":3.063e-5,"INCLINATION":42.9975,"RA_OF_ASC_NODE":314.2272,"ARG_OF_PERICENTER":17.3505,"MEAN_ANOMALY":342.7357,"EPHEMERIS_TYPE":0,"CLASSIFICATION_TYPE":"U","NORAD_CAT_ID":59087,"ELEMENT_SET_NO":999,"REV_AT_EPOCH":11422,"BSTAR":0.00010287067,"MEAN_MOTION_DOT":2.571e-5,"MEAN_MOTION_DDOT":0}]
